# From MPC106342
C/1995 O1 (Hale-Bopp),e,89.1539,283.0138,130.4465,177.6574,0.0004162,0.99496479,0.0000,03/29.7251/1997,2000,g -2.0,4.0
# From MPC 27287
C/1996 B2 (Hyakutake),e,125.6400,186.7671,129.3881,1529,0.0000165,0.99985097,0.0000,04/20.2165/1996,2000,g 10.0,4.0
# From NK 1615
P/1996 R2 (Lagerkvist),e,2.6007,40.0135,333.3506,3.774912,0.1343828,0.31438694,142.2833,01/06.0/2022,2000,g 11.5,4.0
# From MPC 30063
P/1997 B1 (Kobayashi),e,12.3393,328.8821,183.3195,8.582510,0.0391997,0.76042120,356.7968,01/06.0/2022,2000,g 15.0,2.0
# From MPC 75703
P/1998 VS24 (LINEAR),e,5.0265,159.0386,244.6058,4.527071,0.1023242,0.24265302,148.1914,01/06.0/2022,2000,g 13.0,2.0
# From NK 731
P/1999 RO28 (LONEOS),e,7.5670,137.8836,231.2711,3.426674,0.1553799,0.67238567,143.6493,01/06.0/2022,2000,g 20.0,2.0
# From MPC 75704
P/1999 XN120 (Catalina),e,5.0298,285.2961,161.7657,4.178921,0.1153740,0.21026443,192.9126,01/06.0/2022,2000,g 13.5,2.0
# From NK 744
P/2000 R2 (LINEAR),e,11.6871,160.2856,176.5633,3.467172,0.1526655,0.53157408,142.4893,01/06.0/2022,2000,g 18.0,4.0
# From MPC 43019
P/2001 H5 (NEAT),e,8.3672,328.6849,224.8085,6.097016,0.0654678,0.59827139,148.8288,01/06.0/2022,2000,g 12.0,4.0
# From MPC 75704
P/2001 Q6 (NEAT),e,56.9110,22.1740,42.9309,7.955347,0.0439254,0.82313732,325.5808,01/06.0/2022,2000,g 13.5,4.0
# From MPC 47727
P/2002 EJ57 (LINEAR),e,4.9765,330.3216,167.3294,6.467429,0.0599248,0.59230471,77.8040,01/06.0/2022,2000,g 12.5,4.0
# From MPEC 2021-W31
C/2002 O4 (Hoenig),h,09/30.5033/2002,73.1859,322.0328,105.4013,1.000255,0.761167,2000,9.5,4.0
# From MPC109588
P/2002 T6 (NEAT-LINEAR),e,10.8428,206.1607,219.6576,7.700195,0.0461266,0.56133400,317.2297,01/06.0/2022,2000,g 10.5,4.0
# From MPC 75007
C/2002 VQ94 (LINEAR),e,70.6475,35.0943,100.0684,184.5875,0.0003930,0.96304259,2.2881,01/06.0/2022,2000,g  9.5,2.0
# From MPC 50354
P/2003 F2 (NEAT),e,11.6081,359.0107,192.2080,6.502370,0.0594424,0.54193366,46.6838,01/06.0/2022,2000,g 16.5,2.0
# From MPC 50139
P/2003 QX29 (NEAT),e,11.3910,264.5451,37.5717,8.022573,0.0433744,0.47286657,303.2723,01/06.0/2022,2000,g  8.5,4.0
# From MPC105235
P/2003 T12 (SOHO),e,11.0214,174.5818,219.7477,2.585788,0.2370362,0.76991856,144.3554,01/06.0/2022,2000,g 17.0,4.0
# From MPC 82312
P/2004 A1 (LONEOS),e,10.5517,124.8533,21.1951,7.965477,0.0438416,0.30950479,279.3348,01/06.0/2022,2000,g  6.5,4.0
# From MPC 54558
P/2004 DO29 (Spacewatch-LINEAR),e,14.5323,147.3728,40.6019,7.289472,0.0500795,0.44111277,315.9153,01/06.0/2022,2000,g 13.5,2.0
# From MPC 54823
P/2004 FY140 (LINEAR),e,2.1348,326.7687,242.2874,4.904887,0.0907320,0.16798890,214.2560,01/06.0/2022,2000,g 12.5,2.0
# From MPC 53304
P/2004 R3 (LINEAR-NEAT),e,12.7866,305.3975,37.8558,4.777260,0.0943921,0.25750513,9.9896,01/06.0/2022,2000,g 14.5,4.0
# From MPC 55521
P/2004 V3 (Siding Spring),e,50.4432,356.1283,322.4121,7.136129,0.0517023,0.44620567,324.5545,01/06.0/2022,2000,g 11.5,4.0
# From MPC 75705
P/2004 V5 (LINEAR-Hill),e,19.3402,47.7904,87.6385,7.983345,0.0436945,0.44393244,270.4797,01/06.0/2022,2000,g  8.0,4.0
# From MPC 54164
P/2005 E1 (Tubbiolo),e,4.2637,335.5698,193.9792,7.044532,0.0527140,0.37524917,326.7356,01/06.0/2022,2000,g 10.0,4.0
# From MPC 54823
P/2005 GF8 (LONEOS),e,1.1852,314.5733,284.5623,5.808056,0.0704138,0.51702888,58.5935,01/06.0/2022,2000,g 11.5,4.0
# From MPC 79019
P/2005 J1 (McNaught),e,31.7520,268.8209,338.9545,3.571067,0.1460519,0.56932995,172.6143,01/06.0/2022,2000,g 16.5,4.0
# From MPC 74246
P/2005 L1 (McNaught),e,7.7384,138.2485,149.7544,3.978355,0.1242078,0.21007231,7.9643,01/06.0/2022,2000,g  9.5,4.0
# From MPC 75706
P/2005 S2 (Skiff),e,3.1357,161.2186,229.2445,8.011003,0.0434684,0.19795656,248.4300,01/06.0/2022,2000,g  7.5,4.0
# From MPC 75706
P/2005 SB216 (LONEOS),e,24.0998,1.1525,83.3156,7.137352,0.0516890,0.46410201,283.9144,01/06.0/2022,2000,g 12.0,2.0
# From MPEC 2021-W47
P/2005 T2 (Christensen),e,8.2887,260.1566,58.9294,3.846599,0.1306438,0.41582352,83.6938,01/06.0/2022,2000,g 14.5,4.0
# From MPC 73461
P/2005 T3 (Read),e,6.2236,27.6972,6.7225,7.585538,0.0471764,0.17486958,280.5891,01/06.0/2022,2000,g  9.0,4.0
# From MPC 73461
P/2005 T4 (SWAN),e,160.2403,25.8347,41.7431,9.360821,0.0344138,0.92971302,204.3734,01/06.0/2022,2000,g 15.0,4.0
# From MPC 75706
P/2005 T5 (Broughton),e,21.3695,56.9995,304.6200,7.286065,0.0501146,0.55253946,297.0987,01/06.0/2022,2000,g 11.0,4.0
# From MPC 75706
P/2005 Y2 (McNaught),e,19.0453,94.2853,193.7944,6.359623,0.0614550,0.46919688,27.3241,01/06.0/2022,2000,g  9.0,4.0
# From MPC 56954
P/2006 F4 (Spacewatch),e,12.4413,183.8240,30.7614,3.517057,0.1494290,0.34119360,132.6090,01/06.0/2022,2000,g 15.0,4.0
# From MPC 75707
P/2006 HR30 (Siding Spring),e,31.8393,309.8797,117.3170,7.810458,0.0451533,0.84265489,248.4982,01/06.0/2022,2000,g 11.0,4.0
# From MPC 75707
P/2007 A2 (Christensen),e,26.4873,300.9106,186.7115,6.332153,0.0618553,0.55803071,339.7666,01/06.0/2022,2000,g 13.5,4.0
# From MPC 75707
P/2007 C2 (Catalina),e,8.6199,275.4102,180.1212,6.993835,0.0532882,0.47149806,278.0096,01/06.0/2022,2000,g 10.0,4.0
# From MPC 84315
C/2007 D1 (LINEAR),e,41.5017,171.2287,339.9187,1295,0.0000212,0.99319620,0.0000,06/07.5144/2007,2000,g  3.5,4.0
# From MPC 82314
P/2007 K2 (Gibbs),e,7.6290,188.6375,347.4009,7.269595,0.0502850,0.68296311,268.4758,01/06.0/2022,2000,g 14.0,4.0
# From MPC 60925
P/2007 Q2 (Gilmore),e,10.2026,172.1562,162.8066,5.654482,0.0733018,0.67011932,29.6879,01/06.0/2022,2000,g 16.0,4.0
# From MPC 73462
P/2007 S1 (Zhao),e,5.9640,141.3702,245.3917,3.821478,0.1319341,0.33974585,323.7832,01/06.0/2022,2000,g 13.0,4.0
# From MPC 61994
P/2007 T2 (Kowalski),e,9.7513,3.3763,359.6476,3.046451,0.1853586,0.78556661,233.8501,01/06.0/2022,2000,g 18.5,4.0
# From MPC 75709
P/2008 L2 (Hill),e,25.8669,218.0143,141.2461,6.027414,0.0666051,0.61332892,327.3592,01/06.0/2022,2000,g 12.5,4.0
# From MPC 64114
P/2008 O3 (Boattini),e,32.3005,47.5744,341.1275,8.218656,0.0418314,0.69592746,207.9620,01/06.0/2022,2000,g 13.0,4.0
# From MPEC 2021-X81
P/2008 WZ96 (LINEAR),e,7.1144,56.4184,341.9900,3.487243,0.1513494,0.46944294,20.1159,01/06.0/2022,2000,g 17.2,4.0
# From MPC 75710
P/2008 Y3 (McNaught),e,38.7725,262.8251,238.1298,8.047531,0.0431728,0.44553272,205.7791,01/06.0/2022,2000,g  8.5,4.0
# From MPC 75710
P/2009 B1 (Boattini),e,22.2257,297.0834,128.8796,6.737415,0.0563591,0.63518960,267.7108,01/06.0/2022,2000,g 13.0,4.0
# From MPC 66466
C/2009 G1 (STEREO),e,108.6569,120.4817,175.4650,451.3022,0.0001028,0.99747708,0.0000,04/16.9912/2009,2000,g  9.0,4.0
# From MPC 75710
P/2009 O3 (Hill),e,16.2830,183.6911,154.4559,7.767964,0.0455243,0.68786529,209.7854,01/06.0/2022,2000,g 12.5,4.0
# From MPC 68902
P/2009 Q5 (McNaught),e,40.9885,160.2798,209.0561,7.433233,0.0486337,0.60947536,218.9537,01/06.0/2022,2000,g 10.0,4.0
# From MPC112389
P/2009 T2 (La Sagra),e,27.5847,215.8584,216.3499,7.721369,0.0459370,0.76582865,201.7543,01/06.0/2022,2000,g 14.0,4.0
# From MPC105235
P/2009 WX51 (Catalina),e,9.5935,31.6223,118.1877,3.082260,0.1821378,0.73996463,75.7218,01/06.0/2022,2000,g 19.0,2.0
# From MPC 74247
P/2009 Y2 (Kowalski),e,29.9454,262.0312,172.1336,6.550171,0.0587929,0.63634566,254.6288,01/06.0/2022,2000,g 13.0,4.0
# From MPC 75711
P/2010 A3 (Hill),e,14.8236,63.7412,42.2166,6.081714,0.0657151,0.73360191,283.6873,01/06.0/2022,2000,g 14.0,4.0
# From MPC 75008
P/2010 C1 (Scotti),e,9.1282,141.8865,3.5481,7.103900,0.0520546,0.25933691,231.2482,01/06.0/2022,2000,g  9.5,4.0
# From MPC 75008
P/2010 D2 (WISE),e,57.0897,319.8880,119.9874,6.718719,0.0565945,0.45120007,246.1268,01/06.0/2022,2000,g 16.0,4.0
# From MPC 75009
P/2010 E2 (Jarnac),e,15.3885,177.8214,8.3398,8.639860,0.0388100,0.71959480,166.9371,01/06.0/2022,2000,g 14.0,4.0
# From MPC 72851
P/2010 H2 (Vales),e,14.2759,64.1912,128.0483,3.832939,0.1313428,0.19613839,207.6392,01/06.0/2022,2000,g  6.0,4.0
# From MPC 70361
P/2010 H3 (SOHO),e,23.0634,77.0838,26.1616,3.036975,0.1862268,0.98535513,0.0000,02/07.9355/2021,2000,g 20.0,2.0
# From MPC 73463
P/2010 H4 (Scotti),e,2.3180,44.7323,179.4557,6.595408,0.0581891,0.26661886,245.8208,01/06.0/2022,2000,g 10.5,4.0
# From MPC 74637
P/2010 H5 (Scotti),e,14.0595,24.7992,175.0056,7.166234,0.0513769,0.15275808,221.0200,01/06.0/2022,2000,g 13.0,2.0
# From MPC 98558
P/2010 J3 (McMillan),e,13.2781,106.4378,157.5976,8.976326,0.0366485,0.72632538,152.0467,01/06.0/2022,2000,g 11.0,4.0
# From MPC 84315
P/2010 JC81 (WISE),e,38.7877,30.8579,12.4241,8.107815,0.0426922,0.77743620,167.0187,01/06.0/2022,2000,g  9.0,4.0
# From MPC 74248
P/2010 T2 (PANSTARRS),e,7.8886,58.7261,353.0707,5.545543,0.0754724,0.32202735,299.3348,01/06.0/2022,2000,g 11.5,4.0
# From MPC 98558
P/2010 TO20 (LINEAR-Grauer),e,2.4788,43.2895,267.0898,5.831831,0.0699837,0.05536409,337.5148,01/06.0/2022,2000,g  9.0,4.0
# From MPC 82316
P/2010 U1 (Boattini),e,8.2170,280.6950,86.0825,6.506215,0.0593897,0.24882804,258.8587,01/06.0/2022,2000,g  9.5,4.0
# From MPEC 2021-R75
C/2010 U3 (Boattini),e,55.5397,43.0072,88.0421,2431,0.0000082,0.99652721,0.0000,02/25.2150/2019,2000,g  1.0,4.0
# From MPC 79021
P/2010 UH55 (Spacewatch),e,8.0395,232.9238,225.1563,6.653912,0.0574233,0.56344561,225.4854,01/06.0/2022,2000,g 11.0,4.0
# From MPC 75009
P/2010 WK (LINEAR),e,11.4015,11.3313,40.9676,5.761980,0.0712601,0.69022386,293.8944,01/06.0/2022,2000,g 14.5,2.0
# From MPC 84021
P/2011 C2 (Gibbs),e,10.8858,12.1226,160.7437,7.413057,0.0488324,0.26894257,178.9606,01/06.0/2022,2000,g  9.0,4.0
# From MPC 79866
P/2011 FR143 (Lemmon),e,15.9773,190.9501,350.0276,6.860949,0.0548438,0.45051560,217.6831,01/06.0/2022,2000,g 14.0,2.0
# From MPC 82317
P/2011 JB15 (Spacewatch-Boattini),e,19.1476,153.5807,111.0723,7.361082,0.0493505,0.31688657,179.5320,01/06.0/2022,2000,g  9.0,4.0
# From MPC 87913
P/2011 N1 (ASH),e,35.7425,77.5856,330.3511,6.247137,0.0631223,0.54450014,222.0446,01/06.0/2022,2000,g 11.5,4.0
# From MPC 75714
P/2011 NO1 (Elenin),e,15.2463,295.8162,263.7482,5.527610,0.0758399,0.77454362,303.8691,01/06.0/2022,2000,g 15.0,4.0
# From MPC 82318
